#aV2008  5 31  0  0   .00000000      96 DD+AD WGS84 FIT  NGA
## 1481 518400.00000000   900.00000000 54617  .0000000000000
+   31     2  3  4  5  6  7  8  9 10 11 12 13 14 15 16 17 18
+         19 20 21 22 23 24 25 26 27 28 29 30 31 32  0  0  0
+          0  0  0  0  0  0  0  0  0  0  0  0  0  0  0  0  0
+          0  0  0  0  0  0  0  0  0  0  0  0  0  0  0  0  0
+          0  0  0  0  0  0  0  0  0  0  0  0  0  0  0  0  0
++         0  0  0  0  0  0  0  0  0  0  0  0  0  0  0  0  0
++         0  0  0  0  0  0  0  0  0  0  0  0  0  0  0  0  0
++         0  0  0  0  0  0  0  0  0  0  0  0  0  0  0  0  0
++         0  0  0  0  0  0  0  0  0  0  0  0  0  0  0  0  0
++         0  0  0  0  0  0  0  0  0  0  0  0  0  0  0  0  0
%c cc cc ccc ccc cccc cccc cccc cccc ccccc ccccc ccccc ccccc
%c cc cc ccc ccc cccc cccc cccc cccc ccccc ccccc ccccc ccccc
%f  0.0000000  0.000000000  0.00000000000  0.000000000000000
%f  0.0000000  0.000000000  0.00000000000  0.000000000000000
%i    0    0    0    0      0      0      0      0         0
%i    0    0    0    0      0      0      0      0         0
/*      NGA, ST. LOUIS,MO.                                  
/*   EPHEMERIS COMPUTED FROM  3 DAYS OF DATA                
/* CCCCCCCCCCCCCCCCCCCCCCCCCCCCCCCCCCCCCCCCCCCCCCCCCCCCCCCCC
/* CCCCCCCCCCCCCCCCCCCCCCCCCCCCCCCCCCCCCCCCCCCCCCCCCCCCCCCCC
*  2008  5 31  3 30   .00000000                                                 
P  2 -16011.503505  -1378.505083 -21260.053936    205.698289                    
V  2   9110.132793 -25155.765979  -5623.405313       .010372                    
P  3  21249.147136   5990.902879  14754.329146    235.548285                    
V  3  11401.120917  15607.013049 -22015.617627       .052488                    
P  4 -10934.304741 -12699.044226 -20630.314183    -79.591014                    
V  4  11059.633621 -23689.659260   9120.629989      -.088802                    
P  5 -14935.943043  15361.680936 -15873.637471    784.966567                    
V  5 -19782.364274   2275.424551  21321.615210       .085945                    
P  6  21007.142953  12110.568876  11027.418406    139.012718                    
V  6   6545.322784  12529.079260 -26685.460285       .076884                    
P  7   6791.856962 -25227.576376   4545.447553    -30.876362                    
V  7   4744.395721  -4355.732294 -31141.007585       .082112                    
P  8  -1983.069699 -20839.743946  15968.654690   -155.353923                    
V  8  10302.997991 -17898.020985 -22419.095268      -.016341                    
P  9 -14106.322405  20027.444224   9426.455484    126.872990                    
V  9   2042.790391 -13000.221012  28921.932764       .017344                    
P 10 -26477.956299    362.929524  -3836.349533     -1.872209                    
V 10   4351.044077  -2915.587706 -31115.264715      -.002078                    
P 11  11306.441390 -22249.477888   8451.082307     25.155871                    
V 11   2598.002202  11888.619333  27661.475205      -.003864                    
P 12 -19844.672073  11818.965466 -12934.566891   -358.925149                    
V 12 -16761.485235     13.091105  25641.549635       .002615                    
P 13  -2885.699394 -21475.085371 -15493.643635    257.716284                    
V 13  12166.446482  15136.516843 -23406.538240       .016673                    
P 14  15299.140507  21767.047224    834.850627   -260.856801                    
V 14  -2027.931125    329.460997  32278.217790       .042153                    
P 15 -16214.113723   3185.964442  20815.915500   -119.140617                    
V 15 -15832.279858 -21136.475300  -9096.388637      -.058522                    
P 16  25078.517103   2874.782500  -8511.224761    123.139496                    
V 16 -10485.345644   3615.075430 -29221.166089      -.014660                    
P 17 -15781.934178 -21466.394561    642.921831     38.800536                    
V 17   2634.535087  -1047.164177  31599.949618      -.001590                    
P 18  -1269.958150  15692.912688  21541.879238   -172.534474                    
V 18 -26921.369026   2286.482983  -3640.565924       .039713                    
P 19  15958.024052  -2978.054599  21140.399538     31.020799                    
V 19  14388.159697  22404.673640  -7552.978204       .008032                    
P 20  18112.325827 -13266.519629 -14276.027406    113.192225                    
V 20  18138.134207   -413.090056  23629.333179      -.008299                    
P 21  -2513.533710  24236.040630   9976.999748     62.733176                    
V 21  -8343.809468  10173.702445 -27940.742278      -.011466                    
P 22  13761.299567  12531.310862  19121.244859    211.328744                    
V 22 -23735.149527   3799.312506  14654.604402       .002675                    
P 23   7885.271819 -13686.784041 -21384.039886    356.718985                    
V 23  17072.467142  20928.780193  -7363.704138       .021201                    
P 24 -12968.987076  23161.494528  -2807.367269     98.055438                    
V 24   -971.456336  -4578.725465 -31142.516676       .030446                    
P 25   9173.533509 -24872.186343  -2452.825569   -188.478787                    
V 25   1428.030293   4112.655917 -31532.262223      -.273227                    
P 26 -17467.221489  -2623.968218  19526.526134    264.365720                    
V 26 -14283.150903 -21274.497565 -14732.710640       .077483                    
P 27   3318.622864 -25446.945638   7225.639717    192.155427                    
V 27   4917.512790  -7117.401266 -30274.360575       .026043                    
P 28 -12033.971254 -12870.954195  20357.151783    -19.539765                    
V 28  24644.647921  -3605.156796  12200.070874      -.004692                    
P 29     25.334324  20149.859309 -17198.184048    -42.790610                    
V 29 -14638.763206 -16605.800383 -19313.026952       .003144                    
P 30  -7556.489087  16023.066008 -20100.664369     78.932372                    
V 30 -24668.267093   3244.050869  12164.901401       .018317                    
P 31  11250.136028  11054.759221 -21150.670727    -21.745099                    
V 31 -10778.337672  25120.911160   7433.964657      -.013513                    
P 32  26181.930765  -2941.785928  -2169.906788    291.976536                    
V 32   3428.276676   2526.426522  31891.873243       .047609                    
EOF
